{"type":"Feature","geometry":{"type":"MultiPolygon","coordinates":[[[[109.641378,7.513121],[109.667946,7.573429],[109.706828,7.585413],[109.710217,7.567419],[109.641378,7.513121]]],[[[111.550841,7.534855],[111.549272,7.612731],[111.628843,7.607027],[111.576993,7.583727],[111.550841,7.534855]]],[[[109.734475,7.574596],[109.820008,7.604154],[109.870142,7.555932],[109.800493,7.555218],[109.734475,7.574596]]],[[[110.44566,7.801274],[110.472565,7.843554],[110.519785,7.852571],[110.497957,7.81672],[110.44566,7.801274]]],[[[109.956993,7.808644],[109.905397,7.952862],[109.960269,7.965909],[109.99018,8.024789],[110.071633,7.937183],[109.956993,7.808644]]],[[[110.609778,8.004707],[110.586465,8.033155],[110.605631,8.079191],[110.639618,8.053786],[110.609778,8.004707]]],[[[110.447445,8.071455],[110.4508,8.092707],[110.509492,8.089867],[110.507668,8.067408],[110.447445,8.071455]]],[[[110.591105,8.174786],[110.454597,8.138213],[110.43171,8.144435],[110.531246,8.211785],[110.587643,8.206973],[110.591105,8.174786]]],[[[106.66471220000005,8.760982300000023],[106.64226130000009,8.723398700000075],[106.65999870000007,8.693133400000022],[106.59835170000008,8.670806500000026],[106.61497290000005,8.640417100000036],[106.57609360000004,8.64592170000003],[106.56014790000006,8.681101700000056],[106.59339020000004,8.725383400000055],[106.66471220000005,8.760982300000023]]],[[[104.009011,10.009701],[103.947469,10.241575],[103.858828,10.302475],[103.832397,10.36535],[103.928505,10.362547],[103.99041,10.451776],[104.07822,10.370598],[104.080584,10.246881],[104.018501,10.084872],[104.050724,10.004475],[104.009011,10.009701]]],[[[108.924004,10.549174],[108.95796840000008,10.548464500000023],[108.967041,10.507641],[108.93556820000003,10.508171700000048],[108.924004,10.549174]]],[[[109.28463,12.180528],[109.23013120000007,12.224669400000039],[109.330055,12.220465],[109.335594,12.193859],[109.302116,12.207113],[109.28463,12.180528]]],[[[109.408462,12.550616300000058],[109.30273920000008,12.619011100000023],[109.31900870000004,12.639677500000062],[109.38559350000008,12.623634700000025],[109.408462,12.550616300000058]]],[[[108.484344,15.96664],[108.53614,15.958118],[108.534958,15.922581],[108.484344,15.96664]]],[[[104.797553,8.660114],[104.792426,8.71941],[104.899788,8.798342],[104.811321,8.772837],[104.780678,8.816066],[104.847825,9.669274],[104.895102,9.847457],[104.956514,9.85335],[105.046126,9.940168],[105.097719,9.927301],[105.106385,9.94907],[104.992365,10.097875],[104.885169,10.089462],[104.762899,10.22207],[104.692474,10.204219],[104.645292,10.137429],[104.600799,10.14333],[104.578306,10.260043],[104.531034,10.277581],[104.481891,10.377485],[104.442949,10.364829],[104.439051,10.423179],[104.497961,10.404449],[104.598739,10.533998],[104.868515,10.521688],[104.953844,10.636716],[105.098315,10.721644],[105.028478,10.89228],[105.082756,10.956451],[105.117164,10.960978],[105.103499,10.91877],[105.338299,10.859695],[105.42609,10.97279],[105.537495,10.952169],[105.779524,11.032178],[105.863685,10.901063],[105.849808,10.862712],[105.935489,10.838515],[105.944604,10.917751],[106.070919,10.811752],[106.190087,10.790018],[106.137416,10.91591],[106.146496,10.979513],[106.205671,10.975984],[106.173307,11.076178],[106.15408,11.102177],[106.103018,11.072159],[106.022243,11.143129],[106.014281,11.190903],[105.940678,11.206769],[105.90904,11.28425],[105.863101,11.286153],[105.871733,11.404588],[105.903343,11.446735],[105.874382,11.461007],[105.880698,11.54608],[105.808415,11.600628],[105.853641,11.662941],[105.887448,11.677046],[105.953101,11.639104],[106.016859,11.768962],[106.060723,11.782858],[106.111399,11.743509],[106.256157,11.725566],[106.302326,11.679216],[106.370473,11.696553],[106.451198,11.67086],[106.414291,11.767495],[106.467551,11.867186],[106.411616,11.974719],[106.720863,11.968427],[106.793375,12.082871],[106.919991,12.061423],[107.000112,12.094549],[107.155479,12.278722],[107.345839,12.334434],[107.416644,12.239062],[107.443902,12.292446],[107.545218,12.352177],[107.589925,12.558766],[107.582204,12.679465],[107.554599,12.817165],[107.498574,12.877582],[107.48419,12.948105],[107.493067,13.043241],[107.631318,13.35986],[107.617666,13.528654],[107.532987,13.744705],[107.45136,13.795328],[107.473204,13.854965],[107.455705,13.980205],[107.384733,13.989],[107.35647,14.026135],[107.382645,14.078719],[107.332208,14.104609],[107.406163,14.23368],[107.389006,14.326261],[107.427806,14.412852],[107.488666,14.40663],[107.532034,14.55523],[107.516499,14.58592],[107.545007,14.610932],[107.556817,14.718881],[107.523737,14.722209],[107.542093,14.750408],[107.505326,14.786111],[107.591555,14.874083],[107.483163,14.950806],[107.467559,15.007641],[107.539646,15.049454],[107.583913,15.028117],[107.621354,15.051004],[107.597784,15.08819],[107.626942,15.149387],[107.582773,15.200231],[107.633579,15.230921],[107.635039,15.319319],[107.596403,15.38306],[107.623992,15.415485],[107.560923,15.39443],[107.470411,15.498874],[107.381902,15.493489],[107.34329,15.614185],[107.27725,15.63312],[107.276673,15.706905],[107.248833,15.744577],[107.213551,15.738665],[107.210762,15.826725],[107.328814,15.890095],[107.385136,15.886688],[107.428193,15.930387],[107.467811,16.025339],[107.453172,16.08828],[107.334288,16.054918],[107.263282,16.136669],[107.160047,16.167933],[107.156785,16.256512],[107.088227,16.311204],[106.96928,16.302054],[106.963344,16.358478],[106.871828,16.428692],[106.890816,16.511173],[106.863008,16.541362],[106.830772,16.548933],[106.802163,16.463592],[106.770797,16.467633],[106.739969,16.410785],[106.735176,16.439011],[106.675758,16.452337],[106.647031,16.522406],[106.667342,16.584186],[106.584911,16.602085],[106.552203,16.694291],[106.551156,16.867836],[106.516213,16.910034],[106.547492,16.926004],[106.550213,17.007719],[106.514589,16.971381],[106.438679,16.995538],[106.40216,17.051593],[106.417573,17.078297],[106.302847,17.208907],[106.3345,17.233093],[106.307957,17.23893],[106.304038,17.295176],[106.275292,17.295904],[106.250907,17.244277],[106.197369,17.274414],[105.8552,17.634308],[105.750886,17.668451],[105.7303,17.745019],[105.675243,17.794911],[105.683041,17.834551],[105.608848,17.890422],[105.643591,17.992719],[105.58131,18.014061],[105.57112,18.084066],[105.503651,18.12862],[105.492335,18.202033],[105.443094,18.204228],[105.409623,18.153457],[105.367407,18.160941],[105.31991,18.200542],[105.328588,18.264514],[105.299847,18.235523],[105.184462,18.325063],[105.18448,18.386745],[105.10389,18.447286],[105.134515,18.591103],[105.188327,18.601911],[105.199461,18.639086],[105.13413,18.714373],[104.942601,18.738559],[104.91345,18.790825],[104.739024,18.800592],[104.715002,18.84048],[104.579649,18.901198],[104.530483,18.985124],[104.448618,18.985521],[104.39984,19.057379],[104.290533,19.117029],[104.214915,19.119604],[104.225241,19.155285],[104.181625,19.198133],[104.070854,19.247132],[104.002284,19.229116],[103.875776,19.305996],[103.975416,19.398124],[104.070701,19.415602],[104.06472,19.45293],[104.12345,19.502298],[104.062786,19.611801],[104.071044,19.682176],[104.133759,19.660109],[104.163597,19.696679],[104.236186,19.707579],[104.305167,19.697176],[104.319957,19.667277],[104.415956,19.706332],[104.526831,19.612949],[104.641812,19.621595],[104.663169,19.702585],[104.836417,19.795914],[104.844019,19.925576],[104.992601,20.094599],[104.927271,20.15851],[104.860039,20.142637],[104.614884,20.241837],[104.616679,20.360304],[104.71927,20.407088],[104.667662,20.470133],[104.474442,20.36891],[104.414401,20.380702],[104.414766,20.426602],[104.376755,20.44314],[104.387267,20.488042],[104.626289,20.625509],[104.636265,20.672192],[104.591891,20.675054],[104.552273,20.722502],[104.494805,20.714772],[104.483615,20.767919],[104.3284,20.856213],[104.290657,20.923437],[104.257316,20.898537],[104.240527,20.933249],[104.104104,20.978654],[104.030821,20.902488],[103.896249,20.907016],[103.850042,20.861246],[103.809311,20.866197],[103.775096,20.805177],[103.792134,20.749568],[103.731516,20.733049],[103.736933,20.668459],[103.684447,20.660901],[103.599314,20.746089],[103.507482,20.754607],[103.463642,20.827809],[103.387479,20.784515],[103.289515,20.83796],[103.236328,20.833035],[103.210942,20.901255],[103.113722,20.896731],[103.034107,21.058111],[102.968564,21.070098],[102.938076,21.158007],[102.902606,21.166198],[102.911916,21.229518],[102.807789,21.263399],[102.897479,21.305101],[102.896061,21.386244],[102.942622,21.456206],[102.86935,21.428915],[102.991901,21.585907],[102.974654,21.744929],[102.877576,21.70224],[102.831841,21.845605],[102.810424,21.82481],[102.826917,21.735599],[102.740582,21.659347],[102.674078,21.655335],[102.612869,21.919886],[102.505767,21.973607],[102.488257,22.007279],[102.519249,22.029896],[102.441433,22.074255],[102.434772,22.116616],[102.240718,22.238619],[102.234625,22.282629],[102.177748,22.304549],[102.196197,22.336264],[102.143914,22.400636],[102.185803,22.434812],[102.263182,22.414315],[102.249154,22.462492],[102.418846,22.636759],[102.384107,22.684685],[102.43534,22.701039],[102.459187,22.766045],[102.495685,22.78061],[102.568791,22.704516],[102.605942,22.733661],[102.862762,22.608291],[102.928492,22.484181],[103.030822,22.44236],[103.079992,22.450654],[103.08317,22.511841],[103.182391,22.557839],[103.16833,22.61862],[103.283364,22.684512],[103.327795,22.811227],[103.439927,22.753535],[103.456233,22.658697],[103.530336,22.594906],[103.579658,22.664334],[103.564154,22.7061],[103.641576,22.797895],[103.876634,22.565495],[103.978191,22.507113],[104.01235,22.523337],[104.038979,22.724063],[104.115025,22.811346],[104.259472,22.84469],[104.269535,22.741719],[104.371402,22.688385],[104.577406,22.853561],[104.599574,22.816365],[104.623248,22.847225],[104.731724,22.822805],[104.777381,22.905166],[104.864346,22.945405],[104.801655,23.116425],[104.875608,23.125597],[104.896222,23.179416],[104.947136,23.151131],[104.962489,23.200088],[105.080236,23.266505],[105.11134,23.246175],[105.171738,23.28921],[105.233872,23.261373],[105.249013,23.332858],[105.323131,23.392643],[105.371087,23.318868],[105.416478,23.285432],[105.441485,23.299516],[105.49851,23.202687],[105.573843,23.161385],[105.570455,23.073842],[105.710704,23.071527],[105.835471,22.989313],[105.87787,22.91664],[105.922476,22.946907],[105.997887,22.941011],[106.001993,22.99246],[106.145557,22.996135],[106.235865,22.954632],[106.278528,22.869627],[106.416032,22.876336],[106.498135,22.905391],[106.525326,22.94867],[106.601774,22.930002],[106.652787,22.86576],[106.706201,22.888905],[106.765158,22.811274],[106.835171,22.806289],[106.764797,22.741153],[106.779844,22.708322],[106.722252,22.637902],[106.728498,22.593772],[106.653402,22.575865],[106.611206,22.604968],[106.557088,22.458591],[106.586147,22.388394],[106.558204,22.348623],[106.659965,22.334186],[106.690983,22.277779],[106.702078,22.219614],[106.669529,22.186322],[106.706087,22.159723],[106.688075,22.138206],[106.713175,22.095893],[106.691111,21.964051],[106.764943,22.013259],[106.811951,21.973422],[106.916329,21.975581],[106.960953,21.919072],[107.024116,21.944973],[107.063083,21.894377],[107.008376,21.827903],[107.111753,21.793822],[107.221342,21.708007],[107.303161,21.741505],[107.360764,21.662968],[107.363171,21.599181],[107.46451,21.663807],[107.483066,21.598746],[107.542762,21.589332],[107.574531,21.617665],[107.676008,21.609004],[107.85724,21.655197],[107.9547,21.537004],[108.047555,21.537762],[108.00695,21.522704],[108.011628,21.489311],[108.088991,21.48497],[107.969017,21.433434],[107.98964,21.483348],[107.977972,21.465392],[107.963341,21.492021],[107.947268,21.445597],[107.917618,21.47002],[107.948365,21.493809],[107.909515,21.490151],[107.898811,21.529384],[107.871455,21.492123],[107.863057,21.530993],[107.846206,21.491141],[107.836879,21.527473],[107.805057,21.498243],[107.778985,21.520076],[107.755265,21.511075],[107.800446,21.481851],[107.752478,21.431334],[107.762809,21.423264],[107.762191,21.387826],[107.75399,21.381891],[107.672117,21.416292],[107.675528,21.37951],[107.639122,21.380594],[107.652571,21.343781],[107.611589,21.330791],[107.604344,21.290824],[107.562564,21.320492],[107.564926,21.287069],[107.536852,21.338651],[107.544494,21.309374],[107.517596,21.318452],[107.547238,21.290547],[107.512642,21.316187],[107.51268,21.294797],[107.421662,21.28957],[107.445718,21.235522],[107.386351,21.182384],[107.412196,21.182842],[107.416796,21.139522],[107.36686191000007,21.077423316000022],[107.437772,21.149977],[107.420936,21.17172],[107.474575,21.183177],[107.455854,21.275481],[107.539952,21.199079],[107.608727,21.216376],[107.393279,21.039449],[107.36672339900008,21.077246470000034],[107.356405,21.001193],[107.247075,20.998891],[107.16018720000005,20.92795730000006],[106.959793,20.94987],[106.926584,20.92034],[106.949872,20.906751],[106.884601,20.904687],[106.852281,20.866971],[106.904407,20.791256],[106.832537,20.811756],[106.758235,20.777422],[106.809747,20.672321],[106.757675,20.68695],[106.767377,20.715173],[106.700988,20.68665],[106.68227,20.617973],[106.580629,20.55734],[106.60438,20.424385],[106.619197,20.442308],[106.583909,20.391467],[106.619218,20.347223],[106.597836,20.252636],[106.573979,20.266286],[106.581995,20.214595],[106.387711,20.198135],[106.101961,19.887687],[106.109649,19.93608],[106.067638,19.915604],[106.025265,19.965596],[105.953214,19.919169],[105.931705,19.777948],[105.852909,19.700756],[105.811576,19.572229],[105.813866,19.430065],[105.784067,19.393264],[105.827095,19.302748],[105.809888,19.321291],[105.805938,19.274257],[105.737528,19.218165],[105.738346,19.104499],[105.641647,19.067924],[105.620415,18.949382],[105.636538,18.897541],[105.715987,18.855083],[105.77556,18.76114],[105.864599,18.528039],[105.925342,18.445794],[105.94273,18.471376],[106.058889,18.309767],[106.252393,18.215023],[106.360866,18.105287],[106.435135,18.122241],[106.430851,18.063126],[106.524557,17.940963],[106.449127,17.864496],[106.459248,17.77181],[106.685145,17.417615],[107.117695,17.085487],[107.106637,17.013798],[107.141969,16.964794],[107.349815,16.765895],[107.973495,16.319231],[108.03405,16.335469],[108.091057,16.225445],[108.194169,16.210725],[108.122787,16.139825],[108.150991,16.09192],[108.201343,16.074038],[108.245534,16.154891],[108.305368,16.123124],[108.324049,16.140738],[108.338424,16.117811],[108.247557,16.079966],[108.295017,15.958562],[108.405317,15.867145],[108.449129,15.748138],[108.611169,15.521549],[108.67878,15.511879],[108.697199,15.440151],[108.74902,15.392076],[108.826333,15.418589],[108.829383,15.374945],[108.883192,15.327924],[108.867578,15.29509],[108.940636,15.242423],[108.895256,15.188137],[108.913687,15.038956],[109.077963,14.702019],[109.068504,14.558223],[109.227614,14.138052],[109.205364,14.111207],[109.253689,14.017957],[109.244772,13.93839],[109.298079,13.877558],[109.289257,13.754667],[109.24094,13.771531],[109.214291,13.745076],[109.227094,13.638008],[109.296297,13.571855],[109.288698,13.493254],[109.330538,13.464037],[109.310917,13.413186],[109.268222,13.412305],[109.292749,13.455624],[109.239469,13.491838],[109.21591,13.394123],[109.294307,13.363922],[109.283588,13.31707],[109.31697,13.254759],[109.296035,13.137975],[109.455851,12.913296],[109.452727,12.85981],[109.42056,12.848046],[109.428634,12.881125],[109.357067,12.819517],[109.39043,12.721445],[109.461776,12.6484],[109.435421,12.642399],[109.43241,12.562334],[109.390411,12.626769],[109.396409,12.684201],[109.364234,12.642174],[109.328831,12.66299],[109.37974,12.712402],[109.344482,12.79982],[109.190809,12.631907],[109.19781,12.569286],[109.243803,12.585647],[109.233174,12.525318],[109.294848,12.479729],[109.290295,12.426555],[109.342019,12.399304],[109.29278,12.345577],[109.176668,12.456711],[109.151365,12.428816],[109.243059,12.305404],[109.202937,12.281498],[109.197984,12.166464],[109.223734,12.140978],[109.195,12.092414],[109.284013,11.954773],[109.258507,11.924424],[109.281104,11.879838],[109.248876,11.852285],[109.202497,11.880903],[109.212448,11.988751],[109.181564,12.111284],[109.162987,12.118929],[109.207916,11.981084],[109.111829,11.856033],[109.144254,11.819251],[109.190985,11.87529],[109.187552,11.788758],[109.233501,11.727624],[109.191983,11.725544],[109.128524,11.562869],[109.027841,11.578574],[109.016447,11.357578],[108.932482,11.306942],[108.880914,11.337693],[108.785877,11.311901],[108.708306,11.16575],[108.650948,11.193387],[108.52107,11.151403],[108.475385,11.048613],[108.363096,11.024326],[108.295524,10.914707],[108.227931,10.954659],[108.081188,10.910395],[107.993906,10.700098],[107.896747,10.722487],[107.826215,10.703312],[107.77704,10.648419],[107.57963,10.57602],[107.512515,10.500924],[107.320412,10.446606],[107.256261,10.380141],[107.165802,10.401829],[107.08362,10.320297],[107.05542,10.381248],[107.102766,10.39399],[107.113727,10.436205],[107.001702,10.498978],[106.931064,10.466877],[106.970994,10.407122],[106.89825,10.377202],[106.873577,10.408501],[106.781787,10.394249],[106.781255,10.291626],[106.751778,10.268354],[106.780886,10.222139],[106.751777,10.179431],[106.791387,10.111637],[106.626779,9.97432],[106.675776,9.862118],[106.618236,9.793624],[106.560012,9.855982],[106.499067,9.824489],[106.5804,9.682422],[106.525918,9.576706],[106.370412,9.527504],[106.305987,9.596921],[106.265926,9.505359],[106.204886,9.498987],[106.206949,9.456705],[106.162535,9.415183],[106.186532,9.380341],[106.153539,9.34779],[105.864639,9.260782],[105.497969,9.095695],[105.399103,9.004682],[105.276555,8.782449],[105.183083,8.745846],[105.104443,8.638346],[104.820958,8.565167],[104.717638,8.605286],[104.727152,8.654877],[104.797553,8.660114]],[[106.792126,20.68812],[106.793718,20.69133],[106.792256,20.694112],[106.792126,20.68812]],[[107.088035,20.991848],[107.043841,20.987291],[107.06754840000008,20.95945290000003],[107.088035,20.991848]]],[[[111.563539,16.221248],[111.589233,16.191731],[111.687069,16.227513],[111.590866,16.181397],[111.5557,16.191868],[111.563539,16.221248]]],[[[111.626298,16.446964],[111.572028,16.456006],[111.58727,16.525142],[111.595053,16.491321],[111.626298,16.446964]]],[[[111.51889,17.120799],[111.562049,17.100212],[111.482547,17.068019],[111.452637,17.085337],[111.51889,17.120799]]],[[[107.034904,20.862087],[107.047279,20.813957],[107.060501,20.833061],[107.10907,20.797974],[107.077858,20.80542],[107.101738,20.779823],[107.0849,20.777399],[107.053986,20.820507],[107.075111,20.779406],[107.049263,20.76223],[107.032486,20.786972],[107.043625,20.758972],[107.071776,20.745825],[107.07261620000008,20.740412],[107.04661520000008,20.712031600000046],[106.91271260000008,20.818845800000076],[106.94712380000004,20.833888200000047],[106.95249710000007,20.878806],[106.95968670000008,20.84798930000005],[107.034904,20.862087]]],[[[107.334856,20.854282700000056],[107.383389,20.828436700000054],[107.38485330000009,20.794867],[107.34394360000005,20.804110300000048],[107.334856,20.854282700000056]]],[[[107.39488390000008,20.876210400000048],[107.39142580000004,20.864624400000025],[107.35595620000004,20.85771630000005],[107.32898860000006,20.893798600000025],[107.39488390000008,20.876210400000048]]],[[[107.51402,20.904054],[107.47709840000005,20.895799100000033],[107.51927410000008,20.914896400000032],[107.55610020000006,20.960906100000045],[107.47074580000009,20.814385300000026],[107.47518780000007,20.885937100000035],[107.51402,20.904054]]],[[[107.45289390000005,20.960543700000073],[107.42060540000006,20.92030610000006],[107.34418290000008,20.90576070000003],[107.40632390000007,20.920172200000025],[107.45289390000005,20.960543700000073]]],[[[107.51573510000009,20.92117870000004],[107.39460630000008,20.89083110000007],[107.55137070000006,21.04501330000005],[107.51573510000009,20.92117870000004]]],[[[107.73844280000009,20.94304610000006],[107.76292290000004,20.968759500000033],[107.73472710000004,20.99139230000003],[107.74751360000005,21.019958900000063],[107.78733750000004,20.988984300000027],[107.76534910000004,20.99808550000006],[107.78033220000003,20.97130050000004],[107.73844280000009,20.94304610000006]]],[[[107.804626,20.992142],[107.859936,21.04181],[107.820424,20.98361],[107.804626,20.992142]]],[[[107.56351210000008,20.96992330000006],[107.63140870000007,21.125411900000074],[107.57696590000006,20.979579500000057],[107.56351210000008,20.96992330000006]]],[[[107.58071920000003,21.117882800000075],[107.525379,21.078576],[107.55366720000006,21.117917900000066],[107.58071920000003,21.117882800000075]]],[[[107.79461140000006,21.350801],[107.81591650000007,21.356007100000056],[107.70359870000004,21.30138370000003],[107.79461140000006,21.350801]]],[[[107.88852180000004,21.365930500000047],[107.82779610000006,21.364814900000056],[108.00552370000008,21.39680290000007],[107.94828030000008,21.35667040000004],[107.84201170000006,21.344515],[107.88852180000004,21.365930500000047]]],[[[114.130747,7.721908],[113.968744,7.606587],[113.924052,7.605516],[113.917054,7.634035],[113.97262500000011,7.622369],[114.114354,7.739049],[114.140373,7.739361],[114.169377,7.699371],[114.130747,7.721908]]],[[[114.32781200000011,7.924838],[114.378687,7.910141],[114.412246,7.951259],[114.4554,7.93532],[114.414261,7.901195],[114.318879,7.90593],[114.266154,7.857879],[114.32781200000011,7.924838]]],[[[113.919205,7.999188],[113.921096,7.975199],[113.949822,7.938125],[113.876103,7.997499],[113.919205,7.999188]]],[[[111.943359,8.181029],[111.9974,8.181125],[112.016586,8.137265],[111.920595,8.133709],[111.943359,8.181029]]],[[[113.221598,8.073227],[113.34079,8.228585],[113.35964600000011,8.290021],[113.342595,8.200682],[113.221598,8.073227]]],[[[114.153875,8.749227],[114.197744,8.740351],[114.207291,8.694406],[114.179003,8.673658],[114.153875,8.749227]]],[[[113.892567,8.829022],[114.029353,8.826269],[114.059991,8.773092],[113.995373,8.775625],[113.892567,8.829022]]],[[[112.542683,8.843682],[112.663339,8.827148],[112.55844600000012,8.807708],[112.542683,8.843682]]],[[[112.216852,8.832509],[112.184355,8.869034],[112.261083,8.892246],[112.216852,8.832509]]],[[[113.678851,8.94779],[113.63508600000011,8.938823],[113.711616,8.979743],[113.678851,8.94779]]],[[[112.869439,9.535335],[112.947753,9.646376],[112.899547,9.569916],[112.93988,9.563127],[113.009991,9.619251],[112.94272400000011,9.560306],[112.869439,9.535335]]],[[[112.95190800000012,9.645553],[113.0568300000001,9.688997],[113.01166500000011,9.621907],[112.95190800000012,9.645553]]],[[[114.415678,10.000002],[114.376818,9.971935],[114.350785,10.0],[114.379575,10.012791],[114.415678,10.000002]]],[[[114.364074,10.320157],[114.27913200000012,10.27519],[114.371956,10.385803],[114.364074,10.320157]]],[[[114.548238,10.322829],[114.564714,10.407078],[114.593542,10.409133],[114.548238,10.322829]]],[[[114.393203,10.749541],[114.369035,10.703332],[114.317607,10.690175],[114.393203,10.749541]]],[[[114.380388,10.70005],[114.5851550000001,10.889319],[114.562315,10.7437],[114.407639,10.673913],[114.380388,10.70005]]],[[[114.564067,10.891555],[114.604216,10.907119],[114.587422,10.826106],[114.588364,10.888784],[114.57704500000011,10.893636],[114.571835,10.884273],[114.564067,10.891555]]],[[[114.11279,10.941919],[114.093062,10.899678],[114.04719000000011,10.907029],[114.079514,10.953003],[114.11279,10.941919]]],[[[114.257897,11.032143],[114.1955,11.044135],[114.269473,11.059863],[114.257897,11.032143]]],[[[114.556115,11.331238],[114.56322300000011,11.371028],[114.606417,11.376069],[114.566139,11.346723],[114.610062,11.348523],[114.602954,11.329077],[114.556115,11.331238]]],[[[114.3859020000001,11.400825],[114.330776,11.378931],[114.384088,11.403053],[114.393909,11.446511],[114.386792,11.455428],[114.34886,11.447294],[114.307809,11.390149],[114.328856,11.379128],[114.293177,11.377186],[114.349188,11.460816],[114.400367,11.471834],[114.3859020000001,11.400825]]],[[[112.4570020000001,16.008693],[112.448163,16.04448],[112.596167,16.0762],[112.534489,16.02373],[112.4570020000001,16.008693]]],[[[111.800311,16.281087],[111.808551,16.252792],[111.737989,16.213537],[111.783746,16.242502],[111.779832,16.274055],[111.668614,16.284915],[111.568069,16.227817],[111.657391,16.287348],[111.800311,16.281087]]],[[[112.482523,16.315456],[112.368691,16.287585],[112.328385,16.293098],[112.46117,16.392438],[112.492776,16.353613],[112.482523,16.315456]]],[[[112.082029,16.343081],[111.945776,16.321911],[112.03120600000011,16.367526],[112.082029,16.343081]]],[[[111.67374,16.54996],[111.592729,16.536683],[111.666129,16.578413],[111.742062,16.555334],[111.783604,16.514554],[111.7378,16.450651],[111.67374,16.54996]]],[[[112.6950230000001,16.424899],[112.761329,16.595617],[112.701433,16.677898],[112.72733,16.695664],[112.775506,16.602792],[112.77692600000012,16.544792],[112.6950230000001,16.424899]]],[[[112.368602,16.78662],[112.310977,16.838342],[112.322416,16.856717],[112.378819,16.833476],[112.368602,16.78662]]],[[[112.186204,16.975823],[112.233957,17.00755],[112.280131,16.997742],[112.359585,16.924809],[112.320668,16.907704],[112.30772700000011,16.955376],[112.186204,16.975823]]],[[[114.804191,8.123845],[114.7449,8.082874],[114.648829,8.082706],[114.78425,8.117647],[114.707571,8.164671],[114.609024,8.130116],[114.642898,8.096384],[114.615491,8.120273],[114.50968000000012,8.111929],[114.704134,8.18665],[114.804191,8.123845]]],[[[115.167028,8.384599],[115.191403,8.391027],[115.274699,8.359057],[115.191291,8.355089],[115.167028,8.384599]]],[[[116.264806,8.924807],[116.297202,8.925442],[116.252577,8.883651],[116.264806,8.924807]]],[[[115.462203,9.361933],[115.42352,9.380183],[115.445934,9.41814],[115.462203,9.361933]]],[[[115.893174,9.792139],[115.8621250000001,9.691756],[115.84203900000011,9.656708],[115.844887,9.730549],[115.85343300000011,9.686441],[115.887424,9.785146],[115.844956,9.772119],[115.851657,9.731501],[115.833631,9.76427],[115.86712000000011,9.808612],[115.893174,9.792139]]],[[[116.60482700000011,9.718968],[116.523091,9.739243],[116.488082,9.709935],[116.432644,9.765876],[116.483636,9.714457],[116.511427,9.752541],[116.60482700000011,9.718968]]],[[[115.330938,10.203452],[115.3024630000001,10.175528],[115.286696,10.171622],[115.28262,10.213133],[115.330938,10.203452]]],[[[114.718567,10.377784],[114.694141,10.310797],[114.65539400000011,10.2875],[114.657682,10.326334],[114.611737,10.332772],[114.671026,10.3342],[114.718567,10.377784]]],[[[116.588917,10.393383],[116.652753,10.541326],[116.734112,10.554351],[116.697155,10.421765],[116.588917,10.393383]]],[[[116.525999,10.314002],[116.781461,10.38692],[116.831535,10.479698],[116.889482,10.513985],[116.7931880000001,10.64048],[116.7053,10.617302],[116.819012,10.693473],[116.837913,10.601062],[116.875955,10.564944],[116.944998,10.563807],[116.943504,10.530474],[116.84514500000012,10.467816],[116.77103100000011,10.357606],[116.49192,10.282553],[116.461805,10.313892],[116.520949,10.42908],[116.542086,10.427899],[116.505236,10.34093],[116.525999,10.314002]]],[[[115.699971,10.490205],[115.733103,10.538479],[115.802562,10.539673],[115.790579,10.455056],[115.735065,10.456463],[115.710908,10.47541],[115.786395,10.473574],[115.7707620000001,10.515318],[115.699971,10.490205]]],[[[115.818299,10.68043],[115.857046,10.645894],[115.827078,10.595485],[115.818299,10.68043]]],[[[116.205174,10.639816],[116.159184,10.605243],[116.165262,10.728953],[116.17551,10.731413],[116.205174,10.639816]]],[[[117.208864,10.658074],[117.19596800000011,10.586253],[117.142589,10.609524],[117.141961,10.744763],[117.176004,10.761825],[117.20861800000011,10.733471],[117.3828830000001,10.720363],[117.393262,10.695965],[117.376136,10.599212],[117.339325,10.600855],[117.309601,10.678754],[117.208864,10.658074]]],[[[115.854311,10.766012],[115.815366,10.782166],[115.836652,10.687604],[115.805171,10.710374],[115.805081,10.787048],[115.832906,10.831444],[115.8704,10.789139],[115.898402,10.702195],[115.881121,10.665532],[115.865108,10.790042],[115.854311,10.766012]]],[[[116.6717450000001,10.775243],[116.61820300000011,10.812135],[116.629182,10.824104],[116.6717450000001,10.775243]]],[[[116.286168,10.806296],[116.290565,10.836029],[116.349046,10.825412],[116.286168,10.806296]]],[[[114.925598,10.869665],[114.86921,10.856742],[114.935149,10.909592],[114.925598,10.869665]]],[[[116.404611,10.910352],[116.455046,10.907832],[116.460356,10.897219],[116.432783,10.876907],[116.404611,10.910352]]],[[[117.319862,11.082007],[117.28664,11.001587],[117.25058600000011,10.997432],[117.237084,11.117273],[117.283965,11.14586],[117.319862,11.082007]]],[[[114.701613,11.001181],[114.688321,11.037544],[114.620478,11.020421],[114.71858,11.096158],[114.72513,11.148962],[114.809632,11.155491],[114.801795,11.091704],[114.701613,11.001181]]],[[[116.031452,11.217358],[116.083073,11.161308],[116.097468,11.065899],[116.031452,11.217358]]],[[[116.191792,11.257838],[116.219081,11.398157],[116.235453,11.407602],[116.217146,11.285106],[116.191792,11.257838]]],[[[116.24045600000011,11.497706],[116.190147,11.449849400000062],[116.13922800000012,11.27242],[116.194378,11.523217],[116.15395300000012,11.484065],[116.204062,11.545224],[116.19731110000009,11.484176600000069],[116.24045600000011,11.497706]]],[[[116.326119,11.406624],[116.358586,11.470961],[116.329002,11.389635],[116.326119,11.406624]]],[[[114.634302,11.482987],[114.615718,11.398382],[114.617723,11.479584],[114.630846,11.504418],[114.66565,11.493065],[114.634302,11.482987]]],[[[116.411413,11.543828],[116.369699,11.498755],[116.400253,11.575435],[116.411413,11.543828]]],[[[116.307624,11.72864],[116.312788,11.622412],[116.29587,11.654705],[116.261535,11.580946],[116.23122500000011,11.597587],[116.307624,11.72864]]]]}}